[
    {
        "Altitude(m)": 624790.7951487585,
        "Argument of Periapsis(deg)": 0.0,
        "Eccentricity": 0.0,
        "Inclination(deg)": 60.0,
        "Latitude(deg)": -59.14711585398727,
        "Longitude(deg)": 21.034789173629797,
        "Mean Anomaly(deg)": -81.81820000000003,
        "RAAN(deg)": 195.00000000000003,
        "Satellite Name": "Test1 875",
        "Satellite Number": 875,
        "Semi-Major Axis(m)": 6980739.136638005,
        "Time(s)": 0
    },
    {
        "Altitude(m)": 624737.4495087969,
        "Argument of Periapsis(deg)": 0.00010418945913296404,
        "Eccentricity": 0.0,
        "Inclination(deg)": 60.0,
        "Latitude(deg)": -58.99456885259159,
        "Longitude(deg)": 22.15429007980159,
        "Mean Anomaly(deg)": -81.19809385453819,
        "RAAN(deg)": 194.99957995086024,
        "Satellite Name": "Test1 875",
        "Satellite Number": 875,
        "Semi-Major Axis(m)": 6980739.136638005,
        "Time(s)": 10
    }
]